ONEWEB-0412             
1 50489U 21132W   23059.18531953  .00002769  00000+0  69890-2 0  9996
2 50489  87.9221 214.8785 0001337  73.4849 286.6430 13.18673364 64125
ONEWEB-0412             
1 50489U 21132W   23059.48883639  .00007395  00000+0  18719-1 0  9993
2 50489  87.9220 214.8184 0001676  79.5787 280.5533 13.18651417 62884
ONEWEB-0412             
1 50489U 21132W   23059.48883639  .00007395  00000+0  18719-1 0  9993
2 50489  87.9220 214.8184 0001676  79.5787 280.5533 13.18651417 64167
ONEWEB-0412             
1 50489U 21132W   23059.94408416  .00000026  00000+0  33926-4 0  9994
2 50489  87.9222 214.7282 0001526  73.0653 287.0647 13.18687658 64223
ONEWEB-0412             
1 50489U 21132W   23060.85460133 -.00000042  00000+0 -13947-3 0  9990
2 50489  87.9222 214.5477 0001481  72.9554 287.1741 13.18687522 63062
ONEWEB-0412             
1 50489U 21132W   23061.68924125  .00000088  00000+0  19086-3 0  9996
2 50489  87.9223 214.3823 0001452  72.8702 287.2589 13.18687959 63175
ONEWEB-0412             
1 50489U 21132W   23062.37212841  .00000135  00000+0  30851-3 0  9994
2 50489  87.9226 214.2471 0001402  72.6023 287.5263 13.18688571 64540
ONEWEB-0412             
1 50489U 21132W   23062.44800474  .00000141  00000+0  32463-3 0  9995
2 50489  87.9226 214.2320 0001403  72.7287 287.3998 13.18688612 63275
ONEWEB-0412             
1 50489U 21132W   23062.67563439  .00000104  00000+0  23090-3 0  9992
2 50489  87.9227 214.1869 0001395  72.8462 287.2822 13.18688089 63306
